{
  "type": "FeatureCollection",
  "features": [
    {
      "type": "Feature",
      "properties": {
        "norad_id": 66174,
        "name": "HTV-X1",
        "group": "stations",
        "lat": -40.041848191640256,
        "lon": -39.71723680318579,
        "alt_km": 420.3168163584269,
        "timestamp": "2025-12-21T14:40:46.667469+00:00",
        "meta_object_name": "HTV-X1",
        "meta_object_id": "2025-241A",
        "meta_epoch": "2025-12-21T04:22:59.119680",
        "meta_mean_motion": 15.49696285,
        "meta_eccentricity": 0.00031756,
        "meta_inclination": 51.6324,
        "meta_ra_of_asc_node": 100.6685,
        "meta_arg_of_pericenter": 279.9061,
        "meta_mean_anomaly": 80.1569,
        "meta_ephemeris_type": 0,
        "meta_classification_type": "U",
        "meta_norad_cat_id": 66174,
        "meta_element_set_no": 999,
        "meta_rev_at_epoch": 51,
        "meta_bstar": 0.00015703459,
        "meta_mean_motion_dot": 8.423e-05,
        "meta_mean_motion_ddot": 0,
        "tle_line1": "1 66174U 25241A   25355.18262870  .00008423  00000+0  15703-3 0  9997",
        "tle_line2": "2 66174  51.6324 100.6685 0003175 279.9061  80.1569 15.49696285   513"
      },
      "geometry": {
        "type": "Point",
        "coordinates": [
          -39.71723680318579,
          -40.041848191640256
        ]
      }
    },
    {
      "type": "Feature",
      "properties": {
        "norad_id": 66515,
        "name": "SZ-21 MODULE",
        "group": "stations",
        "lat": -9.354132756897407,
        "lon": -48.83999177705227,
        "alt_km": 377.0730824057973,
        "timestamp": "2025-12-21T14:40:46.667480+00:00",
        "meta_object_name": "SZ-21 MODULE",
        "meta_object_id": "2025-246C",
        "meta_epoch": "2025-12-21T02:28:16.865472",
        "meta_mean_motion": 15.62895195,
        "meta_eccentricity": 0.00053926,
        "meta_inclination": 41.4772,
        "meta_ra_of_asc_node": 325.0132,
        "meta_arg_of_pericenter": 304.7401,
        "meta_mean_anomaly": 55.2931,
        "meta_ephemeris_type": 0,
        "meta_classification_type": "U",
        "meta_norad_cat_id": 66515,
        "meta_element_set_no": 999,
        "meta_rev_at_epoch": 575,
        "meta_bstar": 0.00023274036,
        "meta_mean_motion_dot": 0.00021377,
        "meta_mean_motion_ddot": 0,
        "tle_line1": "1 66515U 25246C   25355.10297298  .00021377  00000+0  23274-3 0  9990",
        "tle_line2": "2 66515  41.4772 325.0132 0005392 304.7401  55.2931 15.62895195  5757"
      },
      "geometry": {
        "type": "Point",
        "coordinates": [
          -48.83999177705227,
          -9.354132756897407
        ]
      }
    },
    {
      "type": "Feature",
      "properties": {
        "norad_id": 66645,
        "name": "SHENZHOU-22",
        "group": "stations",
        "lat": -19.165115648011735,
        "lon": -60.34551970542413,
        "alt_km": 394.58879296330815,
        "timestamp": "2025-12-21T14:40:46.667490+00:00",
        "meta_object_name": "SHENZHOU-22",
        "meta_object_id": "2025-272A",
        "meta_epoch": "2025-12-21T05:35:06.684000",
        "meta_mean_motion": 15.59524435,
        "meta_eccentricity": 0.00077499,
        "meta_inclination": 41.4687,
        "meta_ra_of_asc_node": 325.1329,
        "meta_arg_of_pericenter": 105.4926,
        "meta_mean_anomaly": 254.6769,
        "meta_ephemeris_type": 0,
        "meta_classification_type": "U",
        "meta_norad_cat_id": 66645,
        "meta_element_set_no": 999,
        "meta_rev_at_epoch": 26519,
        "meta_bstar": 0.00019872404,
        "meta_mean_motion_dot": 0.00015946,
        "meta_mean_motion_ddot": 0,
        "tle_line1": "1 66645U 25272A   25355.23271625  .00015946  00000+0  19872-3 0  9997",
        "tle_line2": "2 66645  41.4687 325.1329 0007749 105.4926 254.6769 15.59524435265193"
      },
      "geometry": {
        "type": "Point",
        "coordinates": [
          -60.34551970542413,
          -19.165115648011735
        ]
      }
    },
    {
      "type": "Feature",
      "properties": {
        "norad_id": 66664,
        "name": "SOYUZ-MS 28",
        "group": "stations",
        "lat": -40.04184936194885,
        "lon": -39.71723468494258,
        "alt_km": 420.3168163557484,
        "timestamp": "2025-12-21T14:40:46.667500+00:00",
        "meta_object_name": "SOYUZ-MS 28",
        "meta_object_id": "2025-275A",
        "meta_epoch": "2025-12-21T04:22:59.119680",
        "meta_mean_motion": 15.49696285,
        "meta_eccentricity": 0.00031756,
        "meta_inclination": 51.6324,
        "meta_ra_of_asc_node": 100.6685,
        "meta_arg_of_pericenter": 279.9061,
        "meta_mean_anomaly": 80.1569,
        "meta_ephemeris_type": 0,
        "meta_classification_type": "U",
        "meta_norad_cat_id": 66664,
        "meta_element_set_no": 999,
        "meta_rev_at_epoch": 128,
        "meta_bstar": 0.00015703459,
        "meta_mean_motion_dot": 8.423e-05,
        "meta_mean_motion_ddot": 0,
        "tle_line1": "1 66664U 25275A   25355.18262870  .00008423  00000+0  15703-3 0  9998",
        "tle_line2": "2 66664  51.6324 100.6685 0003175 279.9061  80.1569 15.49696285  1282"
      },
      "geometry": {
        "type": "Point",
        "coordinates": [
          -39.71723468494258,
          -40.04184936194885
        ]
      }
    },
    {
      "type": "Feature",
      "properties": {
        "norad_id": 66906,
        "name": "1998-067XS",
        "group": "stations",
        "lat": -41.552505523752416,
        "lon": 53.794689587476924,
        "alt_km": 417.0395865084147,
        "timestamp": "2025-12-21T14:40:46.667510+00:00",
        "meta_object_name": "1998-067XS",
        "meta_object_id": "1998-067XS",
        "meta_epoch": "2025-12-20T11:05:35.991168",
        "meta_mean_motion": 15.50962254,
        "meta_eccentricity": 0.00030029,
        "meta_inclination": 51.6311,
        "meta_ra_of_asc_node": 104.1082,
        "meta_arg_of_pericenter": 237.5,
        "meta_mean_anomaly": 122.5699,
        "meta_ephemeris_type": 0,
        "meta_classification_type": "U",
        "meta_norad_cat_id": 66906,
        "meta_element_set_no": 999,
        "meta_rev_at_epoch": 281,
        "meta_bstar": 0.00037246497,
        "meta_mean_motion_dot": 0.00021596,
        "meta_mean_motion_ddot": 0,
        "tle_line1": "1 66906U 98067XS  25354.46222212  .00021596  00000+0  37246-3 0  9994",
        "tle_line2": "2 66906  51.6311 104.1082 0003002 237.5000 122.5699 15.50962254  2818"
      },
      "geometry": {
        "type": "Point",
        "coordinates": [
          53.794689587476924,
          -41.552505523752416
        ]
      }
    },
    {
      "type": "Feature",
      "properties": {
        "norad_id": 66907,
        "name": "1998-067XT",
        "group": "stations",
        "lat": -3.6266003312072055,
        "lon": 95.40982728402386,
        "alt_km": 410.36456897046446,
        "timestamp": "2025-12-21T14:40:46.667521+00:00",
        "meta_object_name": "1998-067XT",
        "meta_object_id": "1998-067XT",
        "meta_epoch": "2025-12-19T11:42:50.767776",
        "meta_mean_motion": 15.52255247,
        "meta_eccentricity": 0.0003998,
        "meta_inclination": 51.6306,
        "meta_ra_of_asc_node": 108.8528,
        "meta_arg_of_pericenter": 265.7173,
        "meta_mean_anomaly": 94.336,
        "meta_ephemeris_type": 0,
        "meta_classification_type": "U",
        "meta_norad_cat_id": 66907,
        "meta_element_set_no": 999,
        "meta_rev_at_epoch": 266,
        "meta_bstar": 0.00077339,
        "meta_mean_motion_dot": 0.00047666,
        "meta_mean_motion_ddot": 0,
        "tle_line1": "1 66907U 98067XT  25353.48808759  .00047666  00000+0  77339-3 0  9995",
        "tle_line2": "2 66907  51.6306 108.8528 0003998 265.7173  94.3360 15.52255247  2660"
      },
      "geometry": {
        "type": "Point",
        "coordinates": [
          95.40982728402386,
          -3.6266003312072055
        ]
      }
    },
    {
      "type": "Feature",
      "properties": {
        "norad_id": 66908,
        "name": "1998-067XU",
        "group": "stations",
        "lat": 0.21411893352664915,
        "lon": 98.45189888029005,
        "alt_km": 409.5712125933778,
        "timestamp": "2025-12-21T14:40:46.667531+00:00",
        "meta_object_name": "1998-067XU",
        "meta_object_id": "1998-067XU",
        "meta_epoch": "2025-12-21T00:46:29.963136",
        "meta_mean_motion": 15.52510982,
        "meta_eccentricity": 0.00039042,
        "meta_inclination": 51.6311,
        "meta_ra_of_asc_node": 101.1653,
        "meta_arg_of_pericenter": 276.2494,
        "meta_mean_anomaly": 83.8051,
        "meta_ephemeris_type": 0,
        "meta_classification_type": "U",
        "meta_norad_cat_id": 66908,
        "meta_element_set_no": 999,
        "meta_rev_at_epoch": 290,
        "meta_bstar": 0.00080289362,
        "meta_mean_motion_dot": 0.00049977,
        "meta_mean_motion_ddot": 0,
        "tle_line1": "1 66908U 98067XU  25355.03229124  .00049977  00000+0  80289-3 0  9997",
        "tle_line2": "2 66908  51.6311 101.1653 0003904 276.2494  83.8051 15.52510982  2909"
      },
      "geometry": {
        "type": "Point",
        "coordinates": [
          98.45189888029005,
          0.21411893352664915
        ]
      }
    }
  ]
}